CUBEBUG-2 (LO-74)       
1 39440U 13066AA  26168.39811619  .00003810  00000+0  35342-3 0  9998
2 39440  97.8909 117.3770 0058378  28.4148 332.0233 14.93763127677029
FUNCUBE-1 (AO-73)       
1 39444U 13066AE  26168.45428206  .00005112  00000+0  31861-3 0  9994
2 39444  97.8279 139.9057 0035653 199.8844 160.0997 15.09493115679706
UWE-3                   
1 39446U 13066AG  26168.41617328  .00003433  00000+0  29686-3 0  9993
2 39446  97.8697 124.4914 0047505 320.3944  39.3810 14.97025793677613
UNISAT-6                
1 40012U 14033C   26168.40223076  .00001884  00000+0  20612-3 0  9999
2 40012  97.7880 321.1099 0046246  68.6169 291.9973 14.88246959646193
DUCHIFAT-1              
1 40021U 14033M   26168.08560661  .00086906  00000+0  89449-3 0  9998
2 40021  98.0464 227.2320 0003017 117.8101 242.3462 15.64575667655739
QB50P1                  
1 40025U 14033R   26168.01826155  .00006622  00000+0  32676-3 0  9995
2 40025  98.0959 179.1525 0007771 215.7704 144.3009 15.18259399653008
LILACSAT-2              
1 40908U 15049K   26168.46575605  .00014064  00000+0  23985-3 0  9995
2 40908  97.4639 205.3181 0005515 243.6135 116.4551 15.51452169595798
FOX-1A (AO-85)          
1 40967U 15058D   26168.48670985  .00001829  00000+0  17239-3 0  9999
2 40967  64.7761 278.0532 0130490  56.4670 304.8826 14.90970839113614
CAS-2T & KS-1Q          
1 41847U 16066G   26168.10210262  .00001464  00000+0  21211-3 0  9994
2 41847  98.3822 243.8394 0342791 129.7362 233.4574 14.44694196504787
RADFXSAT (FOX-1B)       
1 43017U 17073E   26168.14183978  .00005702  00000+0  25063-3 0  9999
2 43017  97.4699  35.3574 0149573 329.4160  29.8412 15.12717347465382
DIWATA-2B               
1 43678U 18084H   26168.50331479  .00001768  00000+0  14554-3 0  9997
2 43678  98.1177   4.7247 0012480 169.1123 191.0371 15.00452646416269
ES'HAIL 2               
1 43700U 18090A   26167.76128993  .00000141  00000+0  00000+0 0  9993
2 43700   0.0175  13.0563 0001609 111.1044  80.7103  1.00270422 27674
FOX-1CLIFF (AO-95)      
1 43770U 18099N   26168.40539692  .00008770  00000+0  33623-3 0  9990
2 43770  97.4379 228.6506 0007952 357.1065   3.0126 15.26715554413259
ITASAT                  
1 43786U 18099AE  26168.08754567  .00005482  00000+0  26431-3 0  9997
2 43786  97.4026 219.6012 0012101   0.6685 359.4564 15.19055872412892
JY1SAT (JO-97)          
1 43803U 18099AX  26168.16099663  .00012621  00000+0  39004-3 0  9998
2 43803  97.4126 230.9950 0004332 262.3288  97.7462 15.33652151413623
UWE-4                   
1 43880U 18111E   26168.34456338  .00026096  00000+0  53314-3 0  9995
2 43880  97.5856  96.7426 0005448 341.8769  18.2285 15.46133218410801
TIANYAN 01              
1 44881U 19093C   26168.51593949  .00000550  00000+0  68113-4 0  9997
2 44881  97.7537 240.7399 0015126  85.7937 274.5008 14.86520695351464
RS-44 & BREEZE-KM R/B   
1 44909U 19096E   26168.47428250  .00000014  00000+0  37816-5 0  9990
2 44909  82.5218 339.5141 0218181 143.4966 218.1236 12.79748855302389
SALSAT                  
1 46495U 20068K   26168.47256565  .00006216  00000+0  21810-3 0  9996
2 46495  97.8846 171.5545 0008034 306.9379  53.1123 15.29803093315400
XW-3 (CAS-9)            
1 50466U 21131B   26168.54054567  .00000276  00000+0  98942-4 0  9998
2 50466  98.4989 260.9282 0005403  96.1589 264.0216 14.41357553235165
GREENCUBE (IO-117)      
1 53109U 22080E   26164.29338770 -.00000003  00000+0  00000+0 0  9990
2 53109  70.1444 299.5995 0008910 290.4576  69.5127  6.42583230 91811
UMKA 1 (RS40S)          
1 57172U 23091G   26168.48869536  .00004788  00000+0  21969-3 0  9995
2 57172  97.5048 227.1847 0014244 116.7374 243.5321 15.20821372164059
CUBESX-HSE 3 (RS42S)    
1 57178U 23091N   26168.50059068  .00010513  00000+0  35036-3 0  9998
2 57178  97.5089 234.0917 0012034  93.8530 266.4087 15.31221873164470
MONITOR-3 (RS58S)       
1 57180U 23091Q   26168.46027786  .00008802  00000+0  32567-3 0  9992
2 57180  97.5081 231.9082 0013108  99.9833 260.2886 15.27846325164334
MONITOR-4 (RS57S)       
1 57182U 23091S   26168.50480975  .00008522  00000+0  31460-3 0  9992
2 57182  97.5074 231.9245 0013099 100.2206 260.0511 15.27932681164343
MONITOR-2 (RS39S)       
1 57184U 23091U   26168.51032737  .00004317  00000+0  20972-3 0  9998
2 57184  97.5071 226.7912 0012751 110.0892 250.1716 15.18913219164005
SVYATOBOR 1 (RS60S)     
1 57187U 23091X   26168.51817444  .00007438  00000+0  28627-3 0  9999
2 57187  97.5087 232.3369 0010869  93.4386 266.8096 15.26620149164364
VIZARD-METEO (RS38S)    
1 57189U 23091Z   26168.47334285  .00013950  00000+0  39922-3 0  9999
2 57189  97.5091 237.9643 0008244  76.8067 283.4095 15.36033838164731
POLYTECH-UNIVERSE 3 (R*)
1 57191U 23091AB  26168.47161580  .00003809  00000+0  18409-3 0  9997
2 57191  97.5046 226.2572 0016866 125.8857 234.3946 15.19115190163997
UTMN 2 (RS27S)          
1 57203U 23091AP  26168.51800646  .00010352  00000+0  33650-3 0  9995
2 57203  97.5085 235.7435 0009244  82.9303 277.2989 15.32058699164593
